ORBCOMM FM20            
1 25416U 98046D   24141.40497939  .00002577  00000+0  94040-3 0  9992
2 25416  44.9936 238.6234 0001565 235.4991 124.5708 14.35275191347798
ORBCOMM FM16            
1 25417U 98046E   24141.49594759  .00003255  00000+0  11514-2 0  9998
2 25417  44.9935 233.8879 0003194 155.1899 204.9102 14.36279054347744
ORBCOMM FM15            
1 25418U 98046F   24141.38487370  .00003210  00000+0  11428-2 0  9992
2 25418  44.9966 238.4955 0003004 159.5755 200.5212 14.35997155347735
ORBCOMM FM14            
1 25419U 98046G   24141.71741818  .00003650  00000+0  12878-2 0  9998
2 25419  44.9957 236.0251 0001727 172.9167 346.3320 14.36179160347968
ORBCOMM FM13            
1 25420U 98046H   24141.38954630  .00003266  00000+0  11746-2 0  9997
2 25420  44.9969 242.5025 0003393 127.6690 232.4465 14.35442214346756
ORBCOMM FM21            
1 25475U 98053A   24141.54947014  .00003016  00000+0  10903-2 0  9998
2 25475  45.0087 326.0806 0000652 114.4415 245.6501 14.35363837340796
ORBCOMM FM22            
1 25476U 98053B   24141.52337271  .00003367  00000+0  11985-2 0  9995
2 25476  45.0083 323.4485 0001875  65.3181 294.7862 14.35900236340783
ORBCOMM FM23            
1 25477U 98053C   24141.50778530  .00002809  00000+0  10180-2 0  9997
2 25477  45.0091 328.7000 0001355  69.6119 290.4873 14.35410140340937
